TRANSPORTER-16 OBJECT CB
1 68489U 26067CB  26105.87284152  .00001277  00000+0  13388-3 0  9999
2 68489  97.7495  65.0895 0000495 306.7342  53.3831 14.91264794  2433
