{
  "norad_id": 68489,
  "name": "TRANSPORTER-16 OBJECT CB",
  "history": [
    {
      "epoch": "2026-04-15T20:56:53.507328Z",
      "apogee_km": 594.3357931312039,
      "perigee_km": 593.6455524915946,
      "latitude_deg": 5.820085867715821e-06,
      "longitude_deg": -93.16211522616838,
      "height_km": 596.8260795798245,
      "semi_major_axis_km": 6972.127672811399,
      "eccentricity": 4.95e-05,
      "inclination_deg": 97.7495,
      "raan_deg": 65.0895,
      "arg_perigee_deg": 306.7342,
      "mean_anomaly_deg": 53.3831,
      "mean_motion_rev_day": 14.91264794
    }
  ]
}